KUIPER-00079            
1 64826U 25151L   25241.25002315 -.00567964  00000+0 -27749-1 0  9990
2 64826  51.8862  76.5414 0007599 313.5607 183.6906 15.19975197  3965
KUIPER-00080            
1 64827U 25151M   25241.25002315 -.00970345  00000+0 -46180-1 0  9992
2 64827  51.8876  76.5476 0002990 322.9216 223.0359 15.21435023  4772
KUIPER-00082            
1 64828U 25151N   25241.25205371  .00042687  00000+0  11879-2 0  9995
2 64828  51.8788  75.4174 0005531 295.3272  64.7142 15.36390635  6752
KUIPER-00083            
1 64829U 25151P   25241.25002315 -.01147645  00000+0 -40900-1 0  9998
2 64829  51.8810  75.6146 0006878 304.5199 302.8405 15.31373198  5865
KUIPER-00084            
1 64830U 25151Q   25241.25002315 -.00415500  00000+0 -28104-1 0  9999
2 64830  51.8974  78.7556 0008982 297.0442 175.7795 15.08149623  4734
KUIPER-00085            
1 64831U 25151R   25241.24783209  .00075525  00000+0  20659-2 0  9992
2 64831  51.8774  75.3938 0006128 296.9563  63.0797 15.36665566  6757
KUIPER-00086            
1 64832U 25151S   25241.25002315 -.00827952  00000+0 -34512-1 0  9999
2 64832  51.8807  75.9900 0009281 303.1136 113.4694 15.25804581  5508
KUIPER-00087            
1 64833U 25151T   25241.25500975  .00046736  00000+0  12997-2 0  9990
2 64833  51.8783  75.4411 0005560 296.0788  63.9626 15.36370843  6756
